{
  "type": "FeatureCollection",
  "features": [
    {
      "type": "Feature",
      "properties": {
        "norad_id": 37836,
        "name": "EUTELSAT 16A",
        "group": "eutelsat",
        "lat": -0.04986198996942579,
        "lon": -165.1455333841846,
        "alt_km": 35773.792657668746,
        "timestamp": "2025-12-02T07:10:08.780919+00:00",
        "meta_object_name": "EUTELSAT 16A",
        "meta_object_id": "2011-057A",
        "meta_epoch": "2025-12-01T19:01:36.820992",
        "meta_mean_motion": 1.00273225,
        "meta_eccentricity": 0.000604,
        "meta_inclination": 0.0598,
        "meta_ra_of_asc_node": 343.6567,
        "meta_arg_of_pericenter": 273.7558,
        "meta_mean_anomaly": 114.8977,
        "meta_ephemeris_type": 0,
        "meta_classification_type": "U",
        "meta_norad_cat_id": 37836,
        "meta_element_set_no": 999,
        "meta_rev_at_epoch": 534,
        "meta_bstar": 0,
        "meta_mean_motion_dot": 1.26e-06,
        "meta_mean_motion_ddot": 0,
        "tle_line1": "1 37836U 11057A   25335.79278728  .00000126  00000+0  00000+0 0  9996",
        "tle_line2": "2 37836   0.0598 343.6567 0006040 273.7558 114.8977  1.00273225  5343"
      },
      "geometry": {
        "type": "Point",
        "coordinates": [
          -165.1455333841846,
          -0.04986198996942579
        ]
      }
    },
    {
      "type": "Feature",
      "properties": {
        "norad_id": 38992,
        "name": "EUTELSAT 21B",
        "group": "eutelsat",
        "lat": -0.02493681042130476,
        "lon": -159.520496233874,
        "alt_km": 35779.2943412224,
        "timestamp": "2025-12-02T07:10:08.780931+00:00",
        "meta_object_name": "EUTELSAT 21B",
        "meta_object_id": "2012-062B",
        "meta_epoch": "2025-12-01T17:20:27.349728",
        "meta_mean_motion": 1.00273345,
        "meta_eccentricity": 0.0003374,
        "meta_inclination": 0.0728,
        "meta_ra_of_asc_node": 16.3709,
        "meta_arg_of_pericenter": 248.1677,
        "meta_mean_anomaly": 88.0102,
        "meta_ephemeris_type": 0,
        "meta_classification_type": "U",
        "meta_norad_cat_id": 38992,
        "meta_element_set_no": 999,
        "meta_rev_at_epoch": 4784,
        "meta_bstar": 0,
        "meta_mean_motion_dot": 1.52e-06,
        "meta_mean_motion_ddot": 0,
        "tle_line1": "1 38992U 12062B   25335.72253877  .00000152  00000+0  00000+0 0  9997",
        "tle_line2": "2 38992   0.0728  16.3709 0003374 248.1677  88.0102  1.00273345 47845"
      },
      "geometry": {
        "type": "Point",
        "coordinates": [
          -159.520496233874,
          -0.02493681042130476
        ]
      }
    },
    {
      "type": "Feature",
      "properties": {
        "norad_id": 39020,
        "name": "EUTELSAT 70B",
        "group": "eutelsat",
        "lat": -0.07782321826239307,
        "lon": -110.58378045080968,
        "alt_km": 35767.869812975165,
        "timestamp": "2025-12-02T07:10:08.780944+00:00",
        "meta_object_name": "EUTELSAT 70B",
        "meta_object_id": "2012-069A",
        "meta_epoch": "2025-12-01T19:17:12.826752",
        "meta_mean_motion": 1.0027148,
        "meta_eccentricity": 0.0004368,
        "meta_inclination": 0.0625,
        "meta_ra_of_asc_node": 358.0246,
        "meta_arg_of_pericenter": 242.6576,
        "meta_mean_anomaly": 190.0345,
        "meta_ephemeris_type": 0,
        "meta_classification_type": "U",
        "meta_norad_cat_id": 39020,
        "meta_element_set_no": 999,
        "meta_rev_at_epoch": 4753,
        "meta_bstar": 0,
        "meta_mean_motion_dot": -2.2e-07,
        "meta_mean_motion_ddot": 0,
        "tle_line1": "1 39020U 12069A   25335.80362068 -.00000022  00000+0  00000+0 0  9996",
        "tle_line2": "2 39020   0.0625 358.0246 0004368 242.6576 190.0345  1.00271480 47534"
      },
      "geometry": {
        "type": "Point",
        "coordinates": [
          -110.58378045080968,
          -0.07782321826239307
        ]
      }
    },
    {
      "type": "Feature",
      "properties": {
        "norad_id": 39122,
        "name": "EUTELSAT 117 WEST A",
        "group": "eutelsat",
        "lat": 0.024835576745768573,
        "lon": 62.12719634103226,
        "alt_km": 35798.85808883791,
        "timestamp": "2025-12-02T07:10:08.780956+00:00",
        "meta_object_name": "EUTELSAT 117 WEST A",
        "meta_object_id": "2013-012A",
        "meta_epoch": "2025-12-01T14:58:10.977024",
        "meta_mean_motion": 1.0027172,
        "meta_eccentricity": 0.0003054,
        "meta_inclination": 0.032,
        "meta_ra_of_asc_node": 48.0184,
        "meta_arg_of_pericenter": 202.9682,
        "meta_mean_anomaly": 287.5076,
        "meta_ephemeris_type": 0,
        "meta_classification_type": "U",
        "meta_norad_cat_id": 39122,
        "meta_element_set_no": 999,
        "meta_rev_at_epoch": 4645,
        "meta_bstar": 0,
        "meta_mean_motion_dot": 8e-08,
        "meta_mean_motion_ddot": 0,
        "tle_line1": "1 39122U 13012A   25335.62373816  .00000008  00000+0  00000+0 0  9994",
        "tle_line2": "2 39122   0.0320  48.0184 0003054 202.9682 287.5076  1.00271720 46454"
      },
      "geometry": {
        "type": "Point",
        "coordinates": [
          62.12719634103226,
          0.024835576745768573
        ]
      }
    },
    {
      "type": "Feature",
      "properties": {
        "norad_id": 39163,
        "name": "EUTELSAT 7B",
        "group": "eutelsat",
        "lat": -0.028341065815184623,
        "lon": -174.11642747541083,
        "alt_km": 35796.22741192649,
        "timestamp": "2025-12-02T07:10:08.780969+00:00",
        "meta_object_name": "EUTELSAT 7B",
        "meta_object_id": "2013-022A",
        "meta_epoch": "2025-12-01T18:58:59.572128",
        "meta_mean_motion": 1.00272197,
        "meta_eccentricity": 0.0004243,
        "meta_inclination": 0.0677,
        "meta_ra_of_asc_node": 355.9772,
        "meta_arg_of_pericenter": 315.3692,
        "meta_mean_anomaly": 51.3157,
        "meta_ephemeris_type": 0,
        "meta_classification_type": "U",
        "meta_norad_cat_id": 39163,
        "meta_element_set_no": 999,
        "meta_rev_at_epoch": 4597,
        "meta_bstar": 0,
        "meta_mean_motion_dot": 6.9e-07,
        "meta_mean_motion_ddot": 0,
        "tle_line1": "1 39163U 13022A   25335.79096727  .00000069  00000+0  00000+0 0  9998",
        "tle_line2": "2 39163   0.0677 355.9772 0004243 315.3692  51.3157  1.00272197 45970"
      },
      "geometry": {
        "type": "Point",
        "coordinates": [
          -174.11642747541083,
          -0.028341065815184623
        ]
      }
    },
    {
      "type": "Feature",
      "properties": {
        "norad_id": 39612,
        "name": "EXPRESS-AT1",
        "group": "eutelsat",
        "lat": -0.026589051478599773,
        "lon": -125.07122692618357,
        "alt_km": 35786.60248610636,
        "timestamp": "2025-12-02T07:10:08.780981+00:00",
        "meta_object_name": "EXPRESS-AT1",
        "meta_object_id": "2014-010A",
        "meta_epoch": "2025-12-02T03:46:40.765728",
        "meta_mean_motion": 1.0026954,
        "meta_eccentricity": 3.96e-05,
        "meta_inclination": 0.0131,
        "meta_ra_of_asc_node": 275.0216,
        "meta_arg_of_pericenter": 233.472,
        "meta_mean_anomaly": 35.4546,
        "meta_ephemeris_type": 0,
        "meta_classification_type": "U",
        "meta_norad_cat_id": 39612,
        "meta_element_set_no": 999,
        "meta_rev_at_epoch": 4284,
        "meta_bstar": 0,
        "meta_mean_motion_dot": 1e-06,
        "meta_mean_motion_ddot": 0,
        "tle_line1": "1 39612U 14010A   25336.15741627  .00000100  00000+0  00000+0 0  9998",
        "tle_line2": "2 39612   0.0131 275.0216 0000396 233.4720  35.4546  1.00269540 42842"
      },
      "geometry": {
        "type": "Point",
        "coordinates": [
          -125.07122692618357,
          -0.026589051478599773
        ]
      }
    },
    {
      "type": "Feature",
      "properties": {
        "norad_id": 39613,
        "name": "EXPRESS-AT2",
        "group": "eutelsat",
        "lat": 0.011032444070589316,
        "lon": -41.21740080897845,
        "alt_km": 35782.145690289515,
        "timestamp": "2025-12-02T07:10:08.780994+00:00",
        "meta_object_name": "EXPRESS-AT2",
        "meta_object_id": "2014-010B",
        "meta_epoch": "2025-12-01T20:24:38.620800",
        "meta_mean_motion": 1.0027181,
        "meta_eccentricity": 0.0001111,
        "meta_inclination": 0.0163,
        "meta_ra_of_asc_node": 297.5637,
        "meta_arg_of_pericenter": 349.5927,
        "meta_mean_anomaly": 229.8308,
        "meta_ephemeris_type": 0,
        "meta_classification_type": "U",
        "meta_norad_cat_id": 39613,
        "meta_element_set_no": 999,
        "meta_rev_at_epoch": 4252,
        "meta_bstar": 0,
        "meta_mean_motion_dot": -2.6e-06,
        "meta_mean_motion_ddot": 0,
        "tle_line1": "1 39613U 14010B   25335.85044700 -.00000260  00000+0  00000+0 0  9991",
        "tle_line2": "2 39613   0.0163 297.5637 0001111 349.5927 229.8308  1.00271810 42521"
      },
      "geometry": {
        "type": "Point",
        "coordinates": [
          -41.21740080897845,
          0.011032444070589316
        ]
      }
    }
  ]
}